OBJECT_NAME,OBJECT_ID,EPOCH,MEAN_MOTION,ECCENTRICITY,INCLINATION,RA_OF_ASC_NODE,ARG_OF_PERICENTER,MEAN_ANOMALY,EPHEMERIS_TYPE,CLASSIFICATION_TYPE,NORAD_CAT_ID,ELEMENT_SET_NO,REV_AT_EPOCH,BSTAR,MEAN_MOTION_DOT,MEAN_MOTION_DDOT
SCD 1,1993-009B,2026-07-15T22:52:04.640736,14.46128812,.0042081,24.9705,29.9632,82.5333,35.7433,0,U,22490,999,76528,.29432E-4,.293E-5,0
TECHSAT 1B (GO-32),1998-043D,2026-07-15T22:25:15.580704,14.24433441,.0002197,99.0086,190.4201,113.5065,246.6344,0,U,25397,999,45542,.2147E-4,.3E-7,0
SCD 2,1998-060A,2026-07-16T07:13:38.769888,14.45534974,.00169923,24.9943,252.6163,71.0994,356.5554,0,U,25504,999,46454,.23781335E-4,.267E-5,0
DLR-TUBSAT,1999-029B,2026-07-15T22:50:28.192416,14.52433336,.0012977,98.6711,193.4043,262.1951,97.7770,0,U,25757,999,43742,.11369E-4,-.2E-7,0
TERRA,1999-068A,2026-07-16T06:14:21.679296,14.61124158,.00034584,97.9441,245.6512,120.5405,304.2363,0,U,25994,999,41385,.44041269E-4,.172E-5,0
MAROC-TUBSAT,2001-056D,2026-07-16T01:46:22.538208,13.70263588,.00205903,99.8099,14.4799,69.9147,46.6685,0,U,27004,999,23014,.6226324E-5,-.41E-6,0
AQUA,2002-022A,2026-07-14T12:07:11.762400,14.62196472,.0000927,98.4295,165.3370,111.8770,0.7592,0,U,27424,999,28726,.80863616E-4,.358E-5,0
SHIYAN-1 (SY-1),2004-012A,2026-07-16T05:00:40.939488,15.34467781,.00041134,97.8687,277.1771,269.5722,90.5049,0,U,28220,999,21554,.21020014E-3,.693E-4,0
AURA,2004-026A,2026-07-16T06:59:39.114816,14.61368611,.00013391,98.3431,153.9889,93.7413,266.3941,0,U,28376,999,17046,.77214915E-4,.333E-5,0
IRS-P5 (CARTOSAT-1),2005-017A,2026-07-16T03:15:13.161600,14.91118443,.00013509,97.5306,218.8869,51.2659,308.8681,0,U,28649,999,14813,.79180674E-4,.733E-5,0
SINAH 1,2005-043D,2026-07-16T07:16:36.055776,14.64175823,.0014474,98.2895,331.8022,180.0544,180.0659,0,U,28893,999,10478,.32228345E-4,.12E-5,0
RESURS-DK 1,2006-021A,2026-07-16T04:27:33.841440,15.13320706,.00071617,69.9306,264.4811,269.9586,90.0759,0,U,29228,999,10696,.53924673E-4,.854E-5,0
ARIRANG-2 (KOMPSAT-2),2006-031A,2026-07-16T08:07:32.054880,14.64675181,.00141806,97.8306,20.3752,347.2266,134.2179,0,U,29268,999,6574,-.14514496E-4,-.122E-5,0
LAPAN-TUBSAT,2007-001A,2026-07-16T06:38:32.498592,14.85975380,.00135379,98.1345,197.1582,90.6094,269.6671,0,U,29709,999,5547,.1154982E-5,-.48E-6,0
HAIYANG-1B,2007-010A,2026-07-15T22:50:40.639200,14.31033433,.001466,98.3515,177.6841,113.6997,246.5726,0,U,31113,999,475,.25067E-4,.24E-6,0
COSMO-SKYMED 1,2007-023A,2026-07-16T06:35:32.816832,14.97222270,.00015179,97.8847,29.3767,102.7197,257.4194,0,U,31598,999,3414,.12639462E-3,.1402E-4,0
TERRASAR-X,2007-026A,2026-07-07T11:29:59.023968,15.19153986,.0001878,97.4461,195.8972,86.9540,273.1909,0,U,31698,999,5630,.14624E-4,.24E-5,0
WORLDVIEW-1 (WV-1),2007-041A,2026-07-16T07:19:31.321632,15.24565400,.00016309,97.3907,316.6406,201.2495,158.8676,0,U,32060,999,4731,.12508486E-3,.3009E-4,0
YAOGAN-3,2007-055A,2026-07-16T06:09:21.009888,14.90886648,.0001628,97.8144,226.8474,77.9670,282.1730,0,U,32289,999,1020,.13078159E-3,.1233E-4,0
COSMO-SKYMED 2,2007-059A,2026-07-16T06:11:38.665824,14.82150908,.00014608,97.8894,20.4355,93.9516,266.1864,0,U,32376,999,631,.2332265E-4,.133E-5,0
RADARSAT-2,2007-061A,2026-07-16T06:51:18.847584,14.29984032,.00013151,98.5777,203.8028,83.6460,276.4873,0,U,32382,999,97011,.1050298E-3,.227E-5,0
CARTOSAT-2A,2008-021A,2026-07-16T06:26:07.836000,14.79275919,.0012433,97.7617,244.9822,23.8740,336.3046,0,U,32783,999,98310,-.14746405E-4,-.16E-5,0
HUANJING 1A (HJ-1A),2008-041A,2026-07-16T07:03:51.635232,14.84049195,.00202767,97.6693,182.0105,46.1601,314.1286,0,U,33320,999,96272,.47751349E-4,.348E-5,0
HUANJING 1B (HJ-1B),2008-041B,2026-07-16T06:38:34.960128,14.83369068,.00380102,97.6530,185.0769,87.8294,272.7272,0,U,33321,999,96272,.13670252E-3,.1083E-4,0
GEOEYE 1,2008-042A,2026-07-16T06:06:14.905152,14.64649808,.00038712,98.1327,270.8378,343.1233,16.9841,0,U,33331,999,95440,.40297199E-4,.167E-5,0
THEOS,2008-049A,2026-07-16T06:40:56.883360,14.20137706,.0001101,98.5558,253.6153,88.8007,271.3296,0,U,33396,999,92209,.15130073E-3,.28E-5,0
COSMO-SKYMED 3,2008-054A,2026-07-16T06:59:34.672992,15.07118977,.00158526,97.8245,56.3429,163.0330,197.1430,0,U,33412,999,96132,.15699751E-3,.2298E-4,0
YAOGAN-4,2008-061A,2026-07-16T05:49:58.767456,14.83252244,.00137218,97.9303,130.5398,342.1558,17.9172,0,U,33446,999,94997,.5880376E-4,.427E-5,0
GOSAT (IBUKI),2009-002A,2026-07-16T06:03:05.624352,14.67540311,.00011363,98.0914,307.9724,88.4284,271.7051,0,U,33492,999,93572,.57618849E-4,.279E-5,0
DEIMOS-1,2009-041A,2026-07-16T06:48:46.100160,14.75265490,.00027978,97.7430,353.2548,91.4815,268.6716,0,U,35681,999,91117,.75662741E-4,.464E-5,0
