SCD 1                   
1 22490U 93009B   26196.95283149  .00000293  00000+0  29432-4 0  9990
2 22490  24.9705  29.9632 0042081  82.5333  35.7433 14.46128812765286
TECHSAT 1B (GO-32)      
1 25397U 98043D   26196.93420811  .00000003  00000+0  21470-4 0  9992
2 25397  99.0086 190.4201 0002197 113.5065 246.6344 14.24433441455426
SCD 2                   
1 25504U 98060A   26197.30114317  .00000267  00000+0  23781-4 0  9993
2 25504  24.9943 252.6163 0016992  71.0994 356.5554 14.45534974464543
DLR-TUBSAT              
1 25757U 99029B   26196.95171519 -.00000002  00000+0  11369-4 0  9993
2 25757  98.6711 193.4043 0012977 262.1951  97.7770 14.52433336437427
TERRA                   
1 25994U 99068A   26197.25997314  .00000172  00000+0  44041-4 0  9992
2 25994  97.9441 245.6512 0003458 120.5405 304.2363 14.61124158413852
MAROC-TUBSAT            
1 27004U 01056D   26197.07387197 -.00000041  00000+0  62263-5 0  9991
2 27004  99.8099  14.4799 0020590  69.9147  46.6685 13.70263588230143
AQUA                    
1 27424U 02022A   26195.50499725  .00000358  00000+0  80864-4 0  9994
2 27424  98.4295 165.3370 0000927 111.8770   0.7592 14.62196472287266
SHIYAN-1 (SY-1)         
1 28220U 04012A   26197.20880717  .00006930  00000+0  21020-3 0  9994
2 28220  97.8687 277.1771 0004113 269.5722  90.5049 15.34467781215545
AURA                    
1 28376U 04026A   26197.29142494  .00000333  00000+0  77215-4 0  9992
2 28376  98.3431 153.9889 0001339  93.7413 266.3941 14.61368611170468
IRS-P5 (CARTOSAT-1)     
1 28649U 05017A   26197.13556900  .00000733  00000+0  79181-4 0  9998
2 28649  97.5306 218.8869 0001350  51.2659 308.8681 14.91118443148137
SINAH 1                 
1 28893U 05043D   26197.30319509  .00000120  00000+0  32228-4 0  9990
2 28893  98.2895 331.8022 0014474 180.0544 180.0659 14.64175823104784
RESURS-DK 1             
1 29228U 06021A   26197.18580835  .00000854  00000+0  53925-4 0  9999
2 29228  69.9306 264.4811 0007161 269.9586  90.0759 15.13320706106964
ARIRANG-2 (KOMPSAT-2)   
1 29268U 06031A   26197.33856545 -.00000122  00000+0 -14514-4 0  9996
2 29268  97.8306  20.3752 0014180 347.2266 134.2179 14.64675181 65747
LAPAN-TUBSAT            
1 29709U 07001A   26197.27676503 -.00000048  00000+0  11550-5 0  9995
2 29709  98.1345 197.1582 0013537  90.6094 269.6671 14.85975380 55477
HAIYANG-1B              
1 31113U 07010A   26196.95185925  .00000024  00000+0  25067-4 0  9994
2 31113  98.3515 177.6841 0014660 113.6997 246.5726 14.31033433  4752
COSMO-SKYMED 1          
1 31598U 07023A   26197.27468538  .00001402  00000+0  12639-3 0  9996
2 31598  97.8847  29.3767 0001517 102.7197 257.4194 14.97222270 34146
TERRASAR-X              
1 31698U 07026A   26188.47915537  .00000240  00000+0  14624-4 0  9994
2 31698  97.4461 195.8972 0001878  86.9540 273.1909 15.19153986 56300
WORLDVIEW-1 (WV-1)      
1 32060U 07041A   26197.30522363  .00003009  00000+0  12508-3 0  9992
2 32060  97.3907 316.6406 0001630 201.2495 158.8676 15.24565400 47315
YAOGAN-3                
1 32289U 07055A   26197.25649317  .00001233  00000+0  13078-3 0  9993
2 32289  97.8144 226.8474 0001628  77.9670 282.1730 14.90886648 10205
COSMO-SKYMED 2          
1 32376U 07059A   26197.25808641  .00000133  00000+0  23323-4 0  9994
2 32376  97.8894  20.4355 0001460  93.9516 266.1864 14.82150908  6312
RADARSAT-2              
1 32382U 07061A   26197.28563481  .00000227  00000+0  10503-3 0  9996
2 32382  98.5777 203.8028 0001315  83.6460 276.4873 14.29984032970110
CARTOSAT-2A             
1 32783U 08021A   26197.26814625 -.00000160  00000+0 -14746-4 0  9997
2 32783  97.7617 244.9822 0012433  23.8740 336.3046 14.79275919983100
HUANJING 1A (HJ-1A)     
1 33320U 08041A   26197.29434763  .00000348  00000+0  47751-4 0  9999
2 33320  97.6693 182.0105 0020276  46.1601 314.1286 14.84049195962721
HUANJING 1B (HJ-1B)     
1 33321U 08041B   26197.27679352  .00001083  00000+0  13670-3 0  9992
2 33321  97.6530 185.0769 0038010  87.8294 272.7272 14.83369068962723
GEOEYE 1                
1 33331U 08042A   26197.25433918  .00000167  00000+0  40297-4 0  9996
2 33331  98.1327 270.8378 0003871 343.1233  16.9841 14.64649808954409
THEOS                   
1 33396U 08049A   26197.27843615  .00000280  00000+0  15130-3 0  9998
2 33396  98.5558 253.6153 0001101  88.8007 271.3296 14.20137706922098
COSMO-SKYMED 3          
1 33412U 08054A   26197.29137353  .00002298  00000+0  15700-3 0  9994
2 33412  97.8245  56.3429 0015852 163.0330 197.1430 15.07118977961328
YAOGAN-4                
1 33446U 08061A   26197.24304129  .00000427  00000+0  58804-4 0  9996
2 33446  97.9303 130.5398 0013721 342.1558  17.9172 14.83252244949974
GOSAT (IBUKI)           
1 33492U 09002A   26197.25214843  .00000279  00000+0  57619-4 0  9995
2 33492  98.0914 307.9724 0001136  88.4284 271.7051 14.67540311935722
DEIMOS-1                
1 35681U 09041A   26197.28386690  .00000464  00000+0  75663-4 0  9998
2 35681  97.7430 353.2548 0002797  91.4815 268.6716 14.75265490911176
